NORAD_CAT_ID,OBJECT_NAME,OBJECT_TYPE,EPOCH,MEAN_MOTION,ECCENTRICITY,INCLINATION,RA_OF_ASC_NODE,ARG_OF_PERICENTER,MEAN_ANOMALY,BSTAR,MEAN_MOTION_DOT,MEAN_MOTION_DDOT,TLE_LINE0,TLE_LINE1,TLE_LINE2,SEMIMAJOR_AXIS,PERIOD,APOGEE,PERIGEE,DECAYED
52470.0,STARLINK-3859,PAYLOAD,2024-04-06 08:46:35,15.08844448,0.0001423,53.2183,331.9783,93.3864,266.7291,8.2807e-05,1.03e-05,0.0,0 STARLINK-3859,1 52470U 22049V   24097.36568740  .00001030  00000-0  82807-4 0  9999,2 52470  53.2183 331.9783 0001423  93.3864 266.7291 15.08844448106229,6917.867,95.437,540.716,538.747,0.0
52470.0,STARLINK-3859,PAYLOAD,2024-04-06 21:29:40,15.08841056,0.0001513,53.218,329.5988,90.4599,269.6567,5.6482e-05,6.11e-06,0.0,0 STARLINK-3859,1 52470U 22049V   24097.89560929  .00000611  00000-0  56482-4 0  9992,2 52470  53.2180 329.5988 0001513  90.4599 269.6567 15.08841056106465,6917.877,95.437,540.789,538.695,0.0
52470.0,STARLINK-3859,PAYLOAD,2024-04-07 08:37:22,15.08843069,0.0001279,53.2184,327.5167,93.1732,266.9406,3.4198e-05,2.56e-06,0.0,0 STARLINK-3859,1 52470U 22049V   24098.35929085  .00000256  00000-0  34198-4 0  9991,2 52470  53.2184 327.5167 0001279  93.1732 266.9406 15.08843069106372,6917.871,95.437,540.621,538.851,0.0
52470.0,STARLINK-3859,PAYLOAD,2024-04-07 21:20:27,15.08843523,0.0001285,53.2179,325.1378,96.6502,263.4636,7.1991e-05,8.58e-06,0.0,0 STARLINK-3859,1 52470U 22049V   24098.88920853  .00000858  00000-0  71991-4 0  9993,2 52470  53.2179 325.1378 0001285  96.6502 263.4636 15.08843523106455,6917.87,95.437,540.624,538.846,0.0
52470.0,STARLINK-3859,PAYLOAD,2024-04-08 08:28:09,15.08847367,0.0001269,53.2205,323.0561,83.7289,276.3847,-1.2794e-05,-4.92e-06,0.0,0 STARLINK-3859,1 52470U 22049V   24099.35288782 -.00000492  00000-0 -12794-4 0  9996,2 52470  53.2205 323.0561 0001269  83.7289 276.3847 15.08847367106689,6917.858,95.437,540.601,538.845,0.0
52470.0,STARLINK-3859,PAYLOAD,2024-04-08 21:11:14,15.08839098,0.0001194,53.2205,320.6772,86.0602,274.0527,0.00010086,1.318e-05,0.0,0 STARLINK-3859,1 52470U 22049V   24099.88281111  .00001318  00000-0  10086-3 0  9990,2 52470  53.2205 320.6772 0001194  86.0602 274.0527 15.08839098106769,6917.883,95.438,540.574,538.922,0.0
52470.0,STARLINK-3859,PAYLOAD,2024-04-09 00:22:01,15.08841469,0.00012,53.2199,320.0815,90.1947,269.9183,8.9907e-05,1.143e-05,0.0,0 STARLINK-3859,1 52470U 22049V   24100.01528972  .00001143  00000-0  89907-4 0  9992,2 52470  53.2199 320.0815 0001200  90.1947 269.9183 15.08841469106620,6917.876,95.437,540.571,538.911,0.0
52470.0,STARLINK-3859,PAYLOAD,2024-04-10 14:31:16,15.08838626,0.0001235,53.2179,312.9458,87.758,272.3554,1.3722e-05,-6.9e-07,0.0,0 STARLINK-3859,1 52470U 22049V   24101.60505374 -.00000069  00000-0  13722-4 0  9998,2 52470  53.2179 312.9458 0001235  87.7580 272.3554 15.08838626106861,6917.885,95.438,540.604,538.895,0.0
52470.0,STARLINK-3859,PAYLOAD,2024-04-10 20:52:48,15.08842722,0.0001181,53.2181,311.7547,88.696,271.4168,0.00012081,1.636e-05,0.0,0 STARLINK-3859,1 52470U 22049V   24101.87001014  .00001636  00000-0  12081-3 0  9995,2 52470  53.2181 311.7547 0001181  88.6960 271.4168 15.08842722107068,6917.872,95.437,540.554,538.92,0.0
52470.0,STARLINK-3859,PAYLOAD,2024-04-11 06:25:07,15.08841097,0.0001143,53.2174,309.97,86.3267,273.7855,0.00010313,1.354e-05,0.0,0 STARLINK-3859,1 52470U 22049V   24102.26745175  .00001354  00000-0  10313-3 0  9995,2 52470  53.2174 309.9700 0001143  86.3267 273.7855 15.08841097106963,6917.877,95.437,540.533,538.951,0.0
52470.0,STARLINK-3859,PAYLOAD,2024-04-11 20:43:36,15.0883815,0.0001372,53.2187,307.2975,101.0428,259.0719,2.8987e-05,1.73e-06,0.0,0 STARLINK-3859,1 52470U 22049V   24102.86361947  .00000173  00000-0  28987-4 0  9997,2 52470  53.2187 307.2975 0001372 101.0428 259.0719 15.08838150107211,6917.886,95.438,540.7,538.802,0.0
52470.0,STARLINK-3859,PAYLOAD,2024-04-12 23:45:09,15.08844392,0.0001379,53.2188,302.2421,99.8906,260.2242,7.8397e-05,9.6e-06,0.0,0 STARLINK-3859,1 52470U 22049V   24103.98969420  .00000960  00000-0  78397-4 0  9995,2 52470  53.2188 302.2421 0001379  99.8906 260.2242 15.08844392107383,6917.867,95.437,540.686,538.778,0.0
52470.0,STARLINK-3859,PAYLOAD,2024-04-13 20:25:10,15.08845431,0.0001255,53.2174,298.3728,81.3022,278.8112,0.00010773,1.427e-05,0.0,0 STARLINK-3859,1 52470U 22049V   24104.85081500  .00001427  00000-0  10773-3 0  9998,2 52470  53.2174 298.3728 0001255  81.3022 278.8112 15.08845431107354,6917.864,95.437,540.597,538.861,0.0
52470.0,STARLINK-3859,PAYLOAD,2024-04-14 20:15:57,15.08847926,0.0001878,53.2196,293.9109,79.3368,280.7835,0.00012212,1.656e-05,0.0,0 STARLINK-3859,1 52470U 22049V   24105.84441624  .00001656  00000-0  12212-3 0  9999,2 52470  53.2196 293.9109 0001878  79.3368 280.7835 15.08847926107662,6917.856,95.437,541.02,538.422,0.0
52470.0,STARLINK-3859,PAYLOAD,2024-04-14 21:51:20,15.08847805,0.0001825,53.2192,293.6092,80.5552,279.5646,0.00016068,2.271e-05,0.0,0 STARLINK-3859,1 52470U 22049V   24105.91065561  .00002271  00000-0  16068-3 0  9996,2 52470  53.2192 293.6092 0001825  80.5552 279.5646 15.08847805107513,6917.857,95.437,540.984,538.459,0.0
52470.0,STARLINK-3859,PAYLOAD,2024-04-15 12:09:48,15.08843001,0.000138,53.2169,290.9404,96.4255,263.6894,0.00013328,1.834e-05,0.0,0 STARLINK-3859,1 52470U 22049V   24106.50681576  .00001834  00000-0  13328-3 0  9992,2 52470  53.2169 290.9404 0001380  96.4255 263.6894 15.08843001107766,6917.871,95.437,540.691,538.782,0.0
52470.0,STARLINK-3859,PAYLOAD,2024-04-15 21:42:07,15.08849054,0.0001413,53.2166,289.1574,87.9541,272.1613,0.00012705,1.735e-05,0.0,0 STARLINK-3859,1 52470U 22049V   24106.90425208  .00001735  00000-0  12705-3 0  9992,2 52470  53.2166 289.1574 0001413  87.9541 272.1613 15.08849054107668,6917.853,95.437,540.695,538.74,0.0
52470.0,STARLINK-3859,PAYLOAD,2024-04-16 05:39:03,15.08838351,0.0001941,53.2183,287.6661,83.296,276.8253,4.4551e-05,4.21e-06,0.0,0 STARLINK-3859,1 52470U 22049V   24107.23545987  .00000421  00000-0  44551-4 0  9992,2 52470  53.2183 287.6661 0001941  83.2960 276.8253 15.08838351107879,6917.885,95.438,541.093,538.408,0.0
52470.0,STARLINK-3859,PAYLOAD,2024-04-16 18:22:08,15.08849392,0.0001558,53.2172,285.2887,80.4521,279.6647,0.00011671,1.57e-05,0.0,0 STARLINK-3859,1 52470U 22049V   24107.76537280  .00001570  00000-0  11671-3 0  9999,2 52470  53.2172 285.2887 0001558  80.4521 279.6647 15.08849392107951,6917.852,95.437,540.794,538.639,0.0
52470.0,STARLINK-3859,PAYLOAD,2024-04-17 11:51:23,15.08834609,0.0001312,53.2149,282.0183,88.143,271.9712,-1.6142e-05,-5.45e-06,0.0,0 STARLINK-3859,1 52470U 22049V   24108.49402092 -.00000545  00000-0 -16142-4 0  9994,2 52470  53.2149 282.0183 0001312  88.1430 271.9712 15.08834609108067,6917.897,95.438,540.669,538.854,0.0
52470.0,STARLINK-3859,PAYLOAD,2024-04-17 15:02:09,15.08831849,0.0001242,53.2163,281.4226,87.4606,272.6529,-4.1531e-05,-9.49e-06,0.0,0 STARLINK-3859,1 52470U 22049V   24108.62650367 -.00000949  00000-0 -41531-4 0  9997,2 52470  53.2163 281.4226 0001242  87.4606 272.6529 15.08831849107924,6917.905,95.438,540.63,538.911,0.0
52470.0,STARLINK-3859,PAYLOAD,2024-04-17 18:12:56,15.08834341,0.0001456,53.2174,280.8271,102.9518,257.1637,-4.0946e-05,-9.39e-06,0.0,0 STARLINK-3859,1 52470U 22049V   24108.75898289 -.00000939  00000-0 -40946-4 0  9996,2 52470  53.2174 280.8271 0001456 102.9518 257.1637 15.08834341107941,6917.898,95.438,540.77,538.755,0.0
52470.0,STARLINK-3859,PAYLOAD,2024-04-18 11:42:08,15.08868537,0.0001371,53.2175,277.5563,81.9871,278.1277,0.0004516,6.912e-05,0.0,0 STARLINK-3859,1 52470U 22049V   24109.48759893  .00006912  00000-0  45160-3 0  9991,2 52470  53.2175 277.5563 0001371  81.9871 278.1277 15.08868537108211,6917.793,95.436,540.607,538.71,0.0
52470.0,STARLINK-3859,PAYLOAD,2024-04-18 14:52:57,15.08809016,0.0001394,53.2175,276.9616,64.7296,295.384,-0.00045898,-7.579e-05,0.0,0 STARLINK-3859,1 52470U 22049V   24109.62010454 -.00007579  00000-0 -45898-3 0  9990,2 52470  53.2175 276.9616 0001394  64.7296 295.3840 15.08809016108076,6917.975,95.44,540.804,538.876,0.0
52470.0,STARLINK-3859,PAYLOAD,2024-04-18 16:28:20,15.0881232,0.0001546,53.2177,276.6643,85.2851,274.8318,-0.00041451,-6.874e-05,0.0,0 STARLINK-3859,1 52470U 22049V   24109.68634305 -.00006874  00000-0 -41451-3 0  9991,2 52470  53.2177 276.6643 0001546  85.2851 274.8318 15.08812320108242,6917.965,95.439,540.9,538.76,0.0
52470.0,STARLINK-3859,PAYLOAD,2024-04-19 11:32:58,15.0882425,0.0001129,53.2163,273.0919,91.6049,268.5072,-3.2356e-05,-8.02e-06,0.0,0 STARLINK-3859,1 52470U 22049V   24110.48123096 -.00000802  00000-0 -32356-4 0  9991,2 52470  53.2163 273.0919 0001129  91.6049 268.5072 15.08824250108366,6917.929,95.439,540.575,539.012,0.0
52470.0,STARLINK-3859,PAYLOAD,2024-04-19 14:43:43,15.08844558,0.0001615,53.217,272.4988,104.7568,255.3603,0.00026668,3.959e-05,0.0,0 STARLINK-3859,1 52470U 22049V   24110.61370262  .00003959  00000-0  26668-3 0  9997,2 52470  53.2170 272.4988 0001615 104.7568 255.3603 15.08844558108227,6917.866,95.437,540.849,538.614,0.0
52470.0,STARLINK-3859,PAYLOAD,2024-04-19 19:29:53,15.08855231,0.000159,53.2176,271.6093,100.2527,259.8644,0.00042507,6.486e-05,0.0,0 STARLINK-3859,1 52470U 22049V   24110.81241903  .00006486  00000-0  42507-3 0  9996,2 52470  53.2176 271.6093 0001590 100.2527 259.8644 15.08855231108414,6917.834,95.437,540.799,538.599,0.0
52470.0,STARLINK-3859,PAYLOAD,2024-04-20 11:23:44,15.08836171,0.000167,53.2185,268.6384,88.9245,271.1938,0.00051401,7.901e-05,0.0,0 STARLINK-3859,1 52470U 22049V   24111.47482428  .00007901  00000-0  51401-3 0  9994,2 52470  53.2185 268.6384 0001670  88.9245 271.1938 15.08836171108517,6917.892,95.438,540.912,538.602,0.0
52470.0,STARLINK-3859,PAYLOAD,2024-04-20 14:34:30,15.08838551,0.0001696,53.2174,268.0423,95.6934,264.4252,0.00045912,7.026e-05,0.0,0 STARLINK-3859,1 52470U 22049V   24111.60730282  .00007026  00000-0  45912-3 0  9991,2 52470  53.2174 268.0423 0001696  95.6934 264.4252 15.08838551108373,6917.885,95.438,540.923,538.577,0.0
